{
  "norad_id": 56827,
  "name": "STARLINK-30151",
  "history": [
    {
      "epoch": "2026-04-14T18:05:16.673280Z",
      "apogee_km": 483.7479831652963,
      "perigee_km": 482.3908365374282,
      "latitude_deg": -8.359182325529197e-06,
      "longitude_deg": 149.14166024642122,
      "height_km": 482.76392150831737,
      "semi_major_axis_km": 6861.206409851362,
      "eccentricity": 9.89e-05,
      "inclination_deg": 43.0027,
      "raan_deg": 263.3867,
      "arg_perigee_deg": 276.9531,
      "mean_anomaly_deg": 83.1208,
      "mean_motion_rev_day": 15.27573216
    },
    {
      "epoch": "2026-04-15T17:37:36.721056Z",
      "apogee_km": 483.6832881552755,
      "perigee_km": 482.3920150858394,
      "latitude_deg": 1.1727936346229471e-05,
      "longitude_deg": 149.55124274687574,
      "height_km": 482.8026612298335,
      "semi_major_axis_km": 6861.174651620557,
      "eccentricity": 9.41e-05,
      "inclination_deg": 43.003,
      "raan_deg": 257.8465,
      "arg_perigee_deg": 271.0323,
      "mean_anomaly_deg": 89.0421,
      "mean_motion_rev_day": 15.27583822
    },
    {
      "epoch": "2026-04-16T17:09:58.021632Z",
      "apogee_km": 483.90849711028295,
      "perigee_km": 482.2275018854061,
      "latitude_deg": -1.8573194565140905e-05,
      "longitude_deg": 149.9568372668068,
      "height_km": 482.83857791003186,
      "semi_major_axis_km": 6861.204999497844,
      "eccentricity": 0.0001225,
      "inclination_deg": 43.0031,
      "raan_deg": 252.3076,
      "arg_perigee_deg": 270.4312,
      "mean_anomaly_deg": 89.6399,
      "mean_motion_rev_day": 15.27573687
    },
    {
      "epoch": "2026-04-17T16:42:18.407232Z",
      "apogee_km": 483.9553418309624,
      "perigee_km": 482.15331854000306,
      "latitude_deg": -1.991782426879168e-05,
      "longitude_deg": 150.3665849618849,
      "height_km": 482.7202434957211,
      "semi_major_axis_km": 6861.191330185483,
      "eccentricity": 0.00013132,
      "inclination_deg": 43.0032,
      "raan_deg": 246.769,
      "arg_perigee_deg": 277.0818,
      "mean_anomaly_deg": 82.9884,
      "mean_motion_rev_day": 15.27578252
    },
    {
      "epoch": "2026-04-18T16:14:38.830848Z",
      "apogee_km": 483.9086478309846,
      "perigee_km": 482.1727698706454,
      "latitude_deg": 1.2599783862660776e-05,
      "longitude_deg": 150.77520893367475,
      "height_km": 482.77980599886746,
      "semi_major_axis_km": 6861.177708850815,
      "eccentricity": 0.0001265,
      "inclination_deg": 43.003,
      "raan_deg": 241.2294,
      "arg_perigee_deg": 272.498,
      "mean_anomaly_deg": 87.5727,
      "mean_motion_rev_day": 15.27582801
    },
    {
      "epoch": "2026-04-19T15:46:59.073024Z",
      "apogee_km": 483.7869099438558,
      "perigee_km": 482.26373190860977,
      "latitude_deg": 3.744752549833994e-05,
      "longitude_deg": 151.18538162124034,
      "height_km": 482.79262143081695,
      "semi_major_axis_km": 6861.1623209262325,
      "eccentricity": 0.000111,
      "inclination_deg": 43.0028,
      "raan_deg": 235.6906,
      "arg_perigee_deg": 270.712,
      "mean_anomaly_deg": 89.3605,
      "mean_motion_rev_day": 15.2758794
    },
    {
      "epoch": "2026-04-20T09:02:43.781568Z",
      "apogee_km": 483.4098671076599,
      "perigee_km": 482.7311564605943,
      "latitude_deg": -8.238065232245573e-06,
      "longitude_deg": -112.52119631807253,
      "height_km": 482.8724494741392,
      "semi_major_axis_km": 6861.207511784127,
      "eccentricity": 4.946e-05,
      "inclination_deg": 43.0022,
      "raan_deg": 231.6293,
      "arg_perigee_deg": 265.6398,
      "mean_anomaly_deg": 94.4397,
      "mean_motion_rev_day": 15.27572848
    },
    {
      "epoch": "2026-04-21T14:51:41.740704Z",
      "apogee_km": 484.17628469065403,
      "perigee_km": 481.9189549507337,
      "latitude_deg": 3.6432067540928817e-06,
      "longitude_deg": 151.99601324600678,
      "height_km": 482.7186911230843,
      "semi_major_axis_km": 6861.184619820694,
      "eccentricity": 0.0001645,
      "inclination_deg": 43.0025,
      "raan_deg": 224.6125,
      "arg_perigee_deg": 275.3949,
      "mean_anomaly_deg": 84.6715,
      "mean_motion_rev_day": 15.27580493
    },
    {
      "epoch": "2026-04-22T14:24:03.582144Z",
      "apogee_km": 483.6613645197249,
      "perigee_km": 482.5827745939905,
      "latitude_deg": -1.327614545987049e-05,
      "longitude_deg": 152.40065792540892,
      "height_km": 483.1283337915649,
      "semi_major_axis_km": 6861.259069556858,
      "eccentricity": 7.86e-05,
      "inclination_deg": 43.0017,
      "raan_deg": 219.0749,
      "arg_perigee_deg": 244.7549,
      "mean_anomaly_deg": 115.3221,
      "mean_motion_rev_day": 15.2755563
    },
    {
      "epoch": "2026-04-23T13:56:23.810496Z",
      "apogee_km": 483.8614950837682,
      "perigee_km": 482.17749283389,
      "latitude_deg": 7.441759065916534e-06,
      "longitude_deg": 152.808282793503,
      "height_km": 482.70103323155945,
      "semi_major_axis_km": 6861.156493958829,
      "eccentricity": 0.00012272,
      "inclination_deg": 43.0022,
      "raan_deg": 213.5335,
      "arg_perigee_deg": 276.4966,
      "mean_anomaly_deg": 83.5746,
      "mean_motion_rev_day": 15.27589886
    },
    {
      "epoch": "2026-04-24T07:12:07.027776Z",
      "apogee_km": 483.83120569885705,
      "perigee_km": 482.2531344897343,
      "latitude_deg": -2.3884206613248005e-05,
      "longitude_deg": -110.89114897434989,
      "height_km": 482.7479304346361,
      "semi_major_axis_km": 6861.179170094295,
      "eccentricity": 0.000115,
      "inclination_deg": 43.0009,
      "raan_deg": 209.4731,
      "arg_perigee_deg": 275.1509,
      "mean_anomaly_deg": 84.9211,
      "mean_motion_rev_day": 15.27582313
    },
    {
      "epoch": "2026-04-25T13:01:05.004192Z",
      "apogee_km": 483.7230249046106,
      "perigee_km": 482.4770242609475,
      "latitude_deg": 3.3783509415003824e-05,
      "longitude_deg": 153.62543956110437,
      "height_km": 482.8811156330171,
      "semi_major_axis_km": 6861.237024582779,
      "eccentricity": 9.08e-05,
      "inclination_deg": 42.9977,
      "raan_deg": 202.4557,
      "arg_perigee_deg": 269.5335,
      "mean_anomaly_deg": 90.5413,
      "mean_motion_rev_day": 15.27562992
    },
    {
      "epoch": "2026-04-26T14:07:35.687136Z",
      "apogee_km": 483.7371254334703,
      "perigee_km": 482.3882135784452,
      "latitude_deg": -1.0009024784253468e-06,
      "longitude_deg": 130.05848676297845,
      "height_km": 482.71095619973084,
      "semi_major_axis_km": 6861.199669505957,
      "eccentricity": 9.83e-05,
      "inclination_deg": 43.0021,
      "raan_deg": 196.5478,
      "arg_perigee_deg": 280.9656,
      "mean_anomaly_deg": 79.1085,
      "mean_motion_rev_day": 15.27575467
    },
    {
      "epoch": "2026-04-27T12:05:46.410432Z",
      "apogee_km": 484.0545899548988,
      "perigee_km": 482.0277979164093,
      "latitude_deg": -5.110504422166196e-05,
      "longitude_deg": 154.44069230324087,
      "height_km": 482.5887033920632,
      "semi_major_axis_km": 6861.178193935653,
      "eccentricity": 0.0001477,
      "inclination_deg": 43.0028,
      "raan_deg": 191.377,
      "arg_perigee_deg": 283.0934,
      "mean_anomaly_deg": 76.9752,
      "mean_motion_rev_day": 15.27582639
    },
    {
      "epoch": "2026-04-28T11:38:07.732608Z",
      "apogee_km": 483.8239568843519,
      "perigee_km": 482.31449151502693,
      "latitude_deg": -2.6609247446007463e-05,
      "longitude_deg": 154.84735387386755,
      "height_km": 482.7167042197753,
      "semi_major_axis_km": 6861.206224199689,
      "eccentricity": 0.00011,
      "inclination_deg": 43.0009,
      "raan_deg": 185.8392,
      "arg_perigee_deg": 279.8472,
      "mean_anomaly_deg": 80.2255,
      "mean_motion_rev_day": 15.27573278
    },
    {
      "epoch": "2026-04-29T20:35:25.039680Z",
      "apogee_km": 483.8664633754015,
      "perigee_km": 482.2595703314546,
      "latitude_deg": 1.1575034282758744e-05,
      "longitude_deg": 11.416176524618013,
      "height_km": 482.7215222725557,
      "semi_major_axis_km": 6861.200016853428,
      "eccentricity": 0.0001171,
      "inclination_deg": 42.9996,
      "raan_deg": 178.0835,
      "arg_perigee_deg": 278.4428,
      "mean_anomaly_deg": 81.6291,
      "mean_motion_rev_day": 15.27575351
    },
    {
      "epoch": "2026-04-30T10:42:49.067136Z",
      "apogee_km": 483.95761231631786,
      "perigee_km": 482.134321554684,
      "latitude_deg": -6.576315192426565e-06,
      "longitude_deg": 155.66201759121194,
      "height_km": 482.6832008339884,
      "semi_major_axis_km": 6861.1829669355,
      "eccentricity": 0.00013287,
      "inclination_deg": 42.9997,
      "raan_deg": 174.7595,
      "arg_perigee_deg": 278.7945,
      "mean_anomaly_deg": 81.2756,
      "mean_motion_rev_day": 15.27581045
    },
    {
      "epoch": "2026-05-02T09:47:31.511904Z",
      "apogee_km": 483.81226787787455,
      "perigee_km": 482.3425957465806,
      "latitude_deg": -2.2265701919096056e-05,
      "longitude_deg": 156.47380162371462,
      "height_km": 482.78879473297906,
      "semi_major_axis_km": 6861.214431812227,
      "eccentricity": 0.0001071,
      "inclination_deg": 42.9995,
      "raan_deg": 163.6816,
      "arg_perigee_deg": 275.0757,
      "mean_anomaly_deg": 84.9972,
      "mean_motion_rev_day": 15.27570537
    },
    {
      "epoch": "2026-05-03T12:28:08.565312Z",
      "apogee_km": 483.86078589420504,
      "perigee_km": 482.13850337366875,
      "latitude_deg": 8.38663817921691e-06,
      "longitude_deg": 108.94585844213415,
      "height_km": 482.597901072755,
      "semi_major_axis_km": 6861.136644633937,
      "eccentricity": 0.00012551,
      "inclination_deg": 43.0009,
      "raan_deg": 157.4036,
      "arg_perigee_deg": 281.958,
      "mean_anomaly_deg": 78.1131,
      "mean_motion_rev_day": 15.27596515
    }
  ]
}